NORAD_CAT_ID,OBJECT_NAME,OBJECT_TYPE,EPOCH,MEAN_MOTION,ECCENTRICITY,INCLINATION,RA_OF_ASC_NODE,ARG_OF_PERICENTER,MEAN_ANOMALY,BSTAR,MEAN_MOTION_DOT,MEAN_MOTION_DDOT,TLE_LINE0,TLE_LINE1,TLE_LINE2,SEMIMAJOR_AXIS,PERIOD,APOGEE,PERIGEE,DECAYED
49755.0,STARLINK-3210,PAYLOAD,2021-12-31 14:00:01,15.40481921,0.0001749,53.214,182.3552,46.8415,57.0487,-0.00029135,-0.00012374,0.0,0 STARLINK-3210,1 49755U 21115AH  21365.58334491 -.00012374  00000-0 -29135-3 0  9996,2 49755  53.2140 182.3552 0001749  46.8415  57.0487 15.40481921  3641,6822.823,93.477,445.881,443.495,0.0
49755.0,STARLINK-3210,PAYLOAD,2021-12-31 21:20:12,15.40471824,0.0001848,53.2142,180.9146,48.1156,312.0007,4.2596e-05,1.349e-05,0.0,0 STARLINK-3210,1 49755U 21115AH  21365.88903569  .00001349  00000-0  42596-4 0  9992,2 49755  53.2142 180.9146 0001848  48.1156 312.0007 15.40471824  4614,6822.853,93.478,445.979,443.457,0.0
49755.0,STARLINK-3210,PAYLOAD,2022-01-01 06:00:00,15.40448551,0.0001727,53.2139,179.2138,40.3331,162.7666,0.00019888,7.780000000000001e-05,0.0,0 STARLINK-3210,1 49755U 21115AH  22001.25001157  .00007780  00000-0  19888-3 0  9995,2 49755  53.2139 179.2138 0001727  40.3331 162.7666 15.40448551  5777,6822.922,93.479,445.965,443.608,0.0
49755.0,STARLINK-3210,PAYLOAD,2022-01-01 14:00:01,15.40473974,0.0001761999999999,53.214,177.6434,43.5356,209.2015,-0.0003589,-0.0001514,0.0,0 STARLINK-3210,1 49755U 21115AH  22001.58335648 -.00015140  00000-0 -35890-3 0  9998,2 49755  53.2140 177.6434 0001762  43.5356 209.2015 15.40473974  3614,6822.846,93.478,445.914,443.509,0.0
49755.0,STARLINK-3210,PAYLOAD,2022-01-01 22:00:00,15.40459678,0.0001781999999999,53.2174,176.0762,34.4677,267.7724,5.4271e-05,1.829e-05,0.0,0 STARLINK-3210,1 49755U 21115AH  22001.91667824  .00001829  00000-0  54271-4 0  9991,2 49755  53.2174 176.0762 0001782  34.4677 267.7724 15.40459678  3638,6822.889,93.479,445.97,443.538,0.0
49755.0,STARLINK-3210,PAYLOAD,2022-01-02 14:00:01,15.40476319,0.0001771999999999,53.2136,172.9318,40.9272,0.5346,-0.00056586,-0.00023614,0.0,0 STARLINK-3210,1 49755U 21115AH  22002.58334491 -.00023614  00000-0 -56586-3 0  9994,2 49755  53.2136 172.9318 0001772  40.9272   0.5346 15.40476319  5984,6822.84,93.478,445.914,443.496,0.0
49755.0,STARLINK-3210,PAYLOAD,2022-01-02 22:00:00,15.40439097,0.0001947,53.2133,171.3626,36.4609,54.6016,0.0013205,0.00054247,0.0,0 STARLINK-3210,1 49755U 21115AH  22002.91667824  .00054247  00000-0  13205-2 0  9994,2 49755  53.2133 171.3626 0001947  36.4609  54.6016 15.40439097  3641,6822.949000000001,93.48,446.143,443.486,0.0
49755.0,STARLINK-3210,PAYLOAD,2022-01-03 06:00:00,15.40468747,0.0001693,53.2133,169.7902,39.0818,101.576,-0.00030495,-0.00012926,0.0,0 STARLINK-3210,1 49755U 21115AH  22003.25001157 -.00012926  00000-0 -30495-3 0  9994,2 49755  53.2133 169.7902 0001693  39.0818 101.5760 15.40468747  6081,6822.861999999999,93.478,445.882,443.572,0.0
49755.0,STARLINK-3210,PAYLOAD,2022-01-03 14:00:01,15.40469937,0.000172,53.2136,168.2202,39.311,150.9392,-0.00036939,-0.00015567,0.0,0 STARLINK-3210,1 49755U 21115AH  22003.58334491 -.00015567  00000-0 -36939-3 0  9993,2 49755  53.2136 168.2202 0001720  39.3110 150.9392 15.40469937  3640,6822.858,93.478,445.897,443.55,0.0
49755.0,STARLINK-3210,PAYLOAD,2022-01-03 22:00:00,15.40452788,0.0001903,53.2135,166.6509,34.9382,204.9082,0.00056756,0.00023,0.0,0 STARLINK-3210,1 49755U 21115AH  22003.91667824  .00023000  00000-0  56756-3 0  9997,2 49755  53.2135 166.6509 0001903  34.9382 204.9082 15.40452788  3637,6822.909000000002,93.479,446.072,443.476,0.0
49755.0,STARLINK-3210,PAYLOAD,2022-01-04 12:00:00,15.40462598,0.0001766,53.2142,163.9006,43.582,193.0361,0.00013287,5.064e-05,0.0,0 STARLINK-3210,1 49755U 21115AH  22004.50001157  .00005064  00000-0  13287-3 0  9996,2 49755  53.2142 163.9006 0001766  43.5820 193.0361 15.40462598  6278,6822.88,93.478,445.95,443.54,0.0
49755.0,STARLINK-3210,PAYLOAD,2022-01-04 14:00:01,15.40474888,0.0001828,53.2142,163.5085,41.0034,298.0092,-0.00056852,-0.00023721,0.0,0 STARLINK-3210,1 49755U 21115AH  22004.58334491 -.00023721  00000-0 -56852-3 0  9991,2 49755  53.2142 163.5085 0001828  41.0034 298.0092 15.40474888  3617,6822.844,93.478,445.956,443.462,0.0
49755.0,STARLINK-3210,PAYLOAD,2022-01-04 20:19:11,15.40461661,0.0001835,53.216,162.2673,40.4988,319.6154,3.2439e-05,9.31e-06,0.0,0 STARLINK-3210,1 49755U 21115AH  22004.84666491  .00000931  00000-0  32439-4 0  9990,2 49755  53.2160 162.2673 0001835  40.4988 319.6154 15.40461661  5228,6822.8830000000025,93.478,446.0,443.496,0.0
49755.0,STARLINK-3210,PAYLOAD,2022-01-05 06:00:00,15.40427541,0.0001738,53.2147,160.3667,38.2287,39.9717,0.0011376,0.00046612,0.0,0 STARLINK-3210,1 49755U 21115AH  22005.25001157  .00046612  00000-0  11376-2 0  9999,2 49755  53.2147 160.3667 0001738  38.2287  39.9717 15.40427541  6399,6822.984,93.481,446.034,443.663,0.0
49755.0,STARLINK-3210,PAYLOAD,2022-01-05 14:00:01,15.40475395,0.000188,53.215,158.7971,38.5319,89.2341,-0.00052437,-0.00021916,0.0,0 STARLINK-3210,1 49755U 21115AH  22005.58334491 -.00021916  00000-0 -52437-3 0  9991,2 49755  53.2150 158.7971 0001880  38.5319  89.2341 15.40475395  3612,6822.842,93.478,445.99,443.425,0.0
49755.0,STARLINK-3210,PAYLOAD,2022-01-05 22:00:00,15.40460207,0.0002012,53.2151,157.2276,32.8482,144.5161,-9.2247e-05,-4.195e-05,0.0,0 STARLINK-3210,1 49755U 21115AH  22005.91667824 -.00004195  00000-0 -92247-4 0  9991,2 49755  53.2151 157.2276 0002012  32.8482 144.5161 15.40460207  6491,6822.887,93.479,446.125,443.379,0.0
49755.0,STARLINK-3210,PAYLOAD,2022-01-06 14:00:01,15.40472526,0.0001963,53.2156,154.0857,35.3527,241.1739,-0.00043036,-0.00018067,0.0,0 STARLINK-3210,1 49755U 21115AH  22006.58334491 -.00018067  00000-0 -43036-3 0  9990,2 49755  53.2156 154.0857 0001963  35.3527 241.1739 15.40472526  3611,6822.851,93.478,446.055,443.376,0.0
49755.0,STARLINK-3210,PAYLOAD,2022-01-06 22:00:00,15.40470607,0.000208,53.2153,152.5158,29.6134,296.5063,-0.00048755,-0.00020407,0.0,0 STARLINK-3210,1 49755U 21115AH  22006.91667824 -.00020407  00000-0 -48755-3 0  9990,2 49755  53.2153 152.5158 0002080  29.6134 296.5063 15.40470607  3641,6822.856,93.478,446.141,443.302,0.0
49755.0,STARLINK-3210,PAYLOAD,2022-01-07 06:00:00,15.40424544,0.0001866,53.2153,150.9434,32.8964,342.8263,0.0013629,0.00055987,0.0,0 STARLINK-3210,1 49755U 21115AH  22007.25001157  .00055987  00000-0  13629-2 0  9999,2 49755  53.2153 150.9434 0001866  32.8964 342.8263 15.40424544  6704,6822.9919999999975,93.481,446.131,443.584,0.0
49755.0,STARLINK-3210,PAYLOAD,2022-01-07 14:00:01,15.40474519,0.0002034,53.2153,149.3743,32.7816,32.5081,-0.00059607,-0.00024848,0.0,0 STARLINK-3210,1 49755U 21115AH  22007.58334491 -.00024848  00000-0 -59607-3 0  9996,2 49755  53.2153 149.3743 0002034  32.7816  32.5081 15.40474519  3617,6822.845,93.478,446.098,443.322,0.0
49755.0,STARLINK-3210,PAYLOAD,2022-01-07 22:00:00,15.40464942,0.0002174,53.2146,147.8042,29.8817,85.0025,0.00052121,0.00021092,0.0,0 STARLINK-3210,1 49755U 21115AH  22007.91667824  .00021092  00000-0  52121-3 0  9992,2 49755  53.2146 147.8042 0002174  29.8817  85.0025 15.40464942  3617,6822.873000000001,93.478,446.221,443.255,0.0
49755.0,STARLINK-3210,PAYLOAD,2022-01-08 02:00:01,15.40488846,0.0002028,53.2147,147.0179,31.8178,287.9274,-0.00073191,-0.00030411,0.0,0 STARLINK-3210,1 49755U 21115AH  22008.08335648 -.00030411  00000-0 -73191-3 0  9994,2 49755  53.2147 147.0179 0002028  31.8178 287.9274 15.40488846  6837,6822.803000000001,93.477,446.051,443.284,0.0
49755.0,STARLINK-3210,PAYLOAD,2022-01-08 14:00:01,15.40469703,0.0002059,53.2145,144.6628,30.6543,183.4422,-0.0002766,-0.00011764,0.0,0 STARLINK-3210,1 49755U 21115AH  22008.58334491 -.00011764  00000-0 -27660-3 0  9994,2 49755  53.2145 144.6628 0002059  30.6543 183.4422 15.40469703  3624,6822.859,93.478,446.129,443.319,0.0
49755.0,STARLINK-3210,PAYLOAD,2022-01-08 22:00:00,15.40485708,0.0002145,53.2139,143.0925,29.526,234.1581,-0.0009345,-0.00038672,0.0,0 STARLINK-3210,1 49755U 21115AH  22008.91667824 -.00038672  00000-0 -93450-3 0  9997,2 49755  53.2139 143.0925 0002145  29.5260 234.1581 15.40485708  6951,6822.812,93.477,446.14,443.213,0.0
49755.0,STARLINK-3210,PAYLOAD,2022-01-09 14:00:01,15.40506876,0.0002139,53.2141,139.951,32.3049,330.5959,-0.00077415,-0.00032155,0.0,0 STARLINK-3210,1 49755U 21115AH  22009.58334491 -.00032155  00000-0 -77415-3 0  9995,2 49755  53.2141 139.9510 0002139  32.3049 330.5959 15.40506876  7061,6822.749,93.476,446.074,443.155,0.0
49755.0,STARLINK-3210,PAYLOAD,2022-01-09 22:00:00,15.40501999,0.0002195,53.2139,138.3805,27.9867,24.5504,-0.00038218,-0.00016109,0.0,0 STARLINK-3210,1 49755U 21115AH  22009.91667824 -.00016109  00000-0 -38218-3 0  9990,2 49755  53.2139 138.3805 0002195  27.9867  24.5504 15.40501999  3634,6822.764,93.476,446.126,443.131,0.0
49755.0,STARLINK-3210,PAYLOAD,2022-01-10 06:00:00,15.40468758,0.0001947,53.2141,136.8081,30.49,71.6827,0.00017421,6.769e-05,0.0,0 STARLINK-3210,1 49755U 21115AH  22010.25001157  .00006769  00000-0  17421-3 0  9992,2 49755  53.2141 136.8081 0001947  30.4900  71.6827 15.40468758  7165,6822.861999999999,93.478,446.055,443.398,0.0
49755.0,STARLINK-3210,PAYLOAD,2022-01-10 14:00:01,15.40476108,0.0002124,53.2142,135.239,27.4933,124.2782,-0.0020883,-0.00085376,0.0,0 STARLINK-3210,1 49755U 21115AH  22010.58334491 -.00085376  00000-0 -20883-2 0  9996,2 49755  53.2142 135.2390 0002124  27.4933 124.2782 15.40476108  3633,6822.84,93.478,446.154,443.256,0.0
49755.0,STARLINK-3210,PAYLOAD,2022-01-10 22:00:00,15.40435084,0.0002179,53.2144,133.6685,24.1749,177.16400000000004,-0.0011663,-0.00048027,0.0,0 STARLINK-3210,1 49755U 21115AH  22010.91667824 -.00048027  00000-0 -11663-2 0  9990,2 49755  53.2144 133.6685 0002179  24.1749 177.1640 15.40435084  7264,6822.9609999999975,93.48,446.31300000000016,443.34,0.0
